ONEWEB-0410             
1 51622U 22012A   26190.77031833  .00000056  00000+0  11042-3 0  9994
2 51622  87.9150   1.3661 0002084  53.0346 307.0976 13.17649971216672
ONEWEB-0411             
1 51623U 22012B   26190.53882223  .00000482  00000+0  13453-2 0  9996
2 51623  87.8829  31.8138 0002227  98.7940 261.3439 13.10377050212218
ONEWEB-0415             
1 51624U 22012C   26190.53542034  .00000298  00000+0  81854-3 0  9996
2 51624  87.8822  31.8126 0002141  88.8853 271.2519 13.10377692212218
ONEWEB-0416             
1 51625U 22012D   26190.01280780  .00000740  00000+0  20834-2 0  9999
2 51625  87.8817  31.9335 0002249  88.2017 271.9368 13.10374150212182
ONEWEB-0422             
1 51626U 22012E   26190.70450469  .00000037  00000+0  62149-4 0  9995
2 51626  87.9147   1.3799 0001700 112.3590 247.7721 13.17650836216779
ONEWEB-0423             
1 51627U 22012F   26190.69775233  .00000077  00000+0  16574-3 0  9997
2 51627  87.9138   1.3854 0001800  88.8247 271.3091 13.17648278216667
ONEWEB-0425             
1 51628U 22012G   26190.02299050  .00000393  00000+0  10894-2 0  9992
2 51628  87.8810  31.9162 0001879  76.1139 284.0197 13.10372120212185
ONEWEB-0428             
1 51629U 22012H   26190.53711991  .00000424  00000+0  11794-2 0  9997
2 51629  87.8816  31.8200 0001843  86.6305 273.5033 13.10377409212217
ONEWEB-0431             
1 51630U 22012J   26189.97189185 -.00000616  00000+0 -18004-2 0  9995
2 51630  87.8818  31.9256 0002234  99.9921 260.1459 13.10371606212193
ONEWEB-0434             
1 51631U 22012K   26189.49201234  .00000535  00000+0  14970-2 0  9999
2 51631  87.8816  32.0477 0001823  67.7485 292.3835 13.10370293212118
ONEWEB-0435             
1 51632U 22012L   26189.95680000  .00002681  00000+0  76433-2 0  9999
2 51632  87.8809  31.9394 0001891  99.1164 261.0177 13.10354925212166
ONEWEB-0436             
1 51633U 22012M   26190.76524654  .00000098  00000+0  21881-3 0  9991
2 51633  87.9148   1.3551 0001856  98.8810 261.2532 13.17650582216655
ONEWEB-0438             
1 51634U 22012N   26190.01788487  .00000580  00000+0  16251-2 0  9996
2 51634  87.8812  31.9309 0001912  84.3086 275.8259 13.10373194212209
ONEWEB-0439             
1 51635U 22012P   26189.63949442  .00000420  00000+0  11658-2 0  9992
2 51635  87.8814  31.9937 0001819  87.0009 273.1327 13.10371793212132
ONEWEB-0442             
1 51636U 22012Q   26190.75767487  .00000065  00000+0  13396-3 0  9992
2 51636  87.9137   1.3875 0001898  73.4283 286.7057 13.17650742216645
ONEWEB-0443             
1 51637U 22012R   26190.70112269  .00000008  00000+0 -13401-4 0  9996
2 51637  87.9133   1.4000 0001484  89.3046 270.8256 13.17649662216685
ONEWEB-0444             
1 51638U 22012S   26190.54560259  .00000686  00000+0  19279-2 0  9993
2 51638  87.8816  31.8111 0001666  87.3125 272.8193 13.10376006212265
ONEWEB-0445             
1 51639U 22012T   26189.49694630 -.00000892  00000+0 -25917-2 0  9994
2 51639  87.8820  32.0101 0002063  86.6839 273.4524 13.10359174212137
ONEWEB-0446             
1 51640U 22012U   26190.54388750  .00000639  00000+0  17928-2 0  9997
2 51640  87.8816  31.8286 0002177  84.2028 275.9347 13.10372782212258
ONEWEB-0448             
1 51641U 22012V   26190.01449683  .00000629  00000+0  17641-2 0  9994
2 51641  87.8801  31.9306 0001739  82.9447 277.1878 13.10374292212150
ONEWEB-0449             
1 51642U 22012W   26189.94321580  .00000568  00000+0  15895-2 0  9991
2 51642  87.8810  31.9289 0001995  61.4811 298.6517 13.10371670212157
ONEWEB-0451             
1 51643U 22012X   26190.76187941  .00000123  00000+0  28235-3 0  9995
2 51643  87.9148   1.3538 0001753  85.1494 274.9837 13.17651103216631
ONEWEB-0452             
1 51644U 22012Y   26190.76018169 -.00000217  00000+0 -59169-3 0  9997
2 51644  87.9144   1.3890 0001549  86.8518 273.2791 13.17649501216648
ONEWEB-0456             
1 51646U 22012AA  26190.02803327  .00000207  00000+0  55693-3 0  9991
2 51646  87.8818  31.9032 0001753  92.7182 267.4146 13.10368988212201
ONEWEB-0457             
1 51647U 22012AB  26190.54037503  .00000502  00000+0  14010-2 0  9999
2 51647  87.8816  31.8169 0002161  80.3994 279.7378 13.10377477212271
ONEWEB-0458             
1 51648U 22012AC  26190.02720422  .00000381  00000+0  10564-2 0  9997
2 51648  87.8809  31.9083 0001674  86.6400 273.4919 13.10369181212162
ONEWEB-0461             
1 51649U 22012AD  26190.55432376  .00000067  00000+0  14037-3 0  9995
2 51649  87.9149   1.4088 0001972  89.5785 270.5573 13.17650128216830
ONEWEB-0463             
1 51650U 22012AE  26190.76357051  .00000129  00000+0  29821-3 0  9992
2 51650  87.9137   1.3874 0002015  90.0443 270.0920 13.17650492216642
ONEWEB-0464             
1 51651U 22012AF  26190.02466475  .00000416  00000+0  11557-2 0  9998
2 51651  87.8806  31.9290 0001524  86.9293 273.2009 13.10369537212185
ONEWEB-0468             
1 51652U 22012AG  26190.02973025  .00000129  00000+0  33223-3 0  9999
2 51652  87.8811  31.9214 0001632  91.3483 268.7832 13.10368529212160
