OBJECT_NAME,OBJECT_ID,EPOCH,MEAN_MOTION,ECCENTRICITY,INCLINATION,RA_OF_ASC_NODE,ARG_OF_PERICENTER,MEAN_ANOMALY,EPHEMERIS_TYPE,CLASSIFICATION_TYPE,NORAD_CAT_ID,ELEMENT_SET_NO,REV_AT_EPOCH,BSTAR,MEAN_MOTION_DOT,MEAN_MOTION_DDOT
ONEWEB-0410,2022-012A,2026-07-09T18:29:15.503712,13.17649971,.0002084,87.9150,1.3661,53.0346,307.0976,0,U,51622,999,21667,.11042E-3,.56E-6,0
ONEWEB-0411,2022-012B,2026-07-09T12:55:54.240672,13.10377050,.0002227,87.8829,31.8138,98.7940,261.3439,0,U,51623,999,21221,.13453E-2,.482E-5,0
ONEWEB-0415,2022-012C,2026-07-09T12:51:00.317376,13.10377692,.0002141,87.8822,31.8126,88.8853,271.2519,0,U,51624,999,21221,.81854E-3,.298E-5,0
ONEWEB-0416,2022-012D,2026-07-09T00:18:26.593920,13.10374150,.00022492,87.8817,31.9335,88.2017,271.9368,0,U,51625,999,21218,.20834191E-2,.74E-5,0
ONEWEB-0422,2022-012E,2026-07-09T16:54:29.205216,13.17650836,.00017,87.9147,1.3799,112.3590,247.7721,0,U,51626,999,21677,.62149E-4,.37E-6,0
ONEWEB-0423,2022-012F,2026-07-09T16:44:45.801312,13.17648278,.00018,87.9138,1.3854,88.8247,271.3091,0,U,51627,999,21666,.16574E-3,.77E-6,0
ONEWEB-0425,2022-012G,2026-07-09T00:33:06.379200,13.10372120,.00018791,87.8810,31.9162,76.1139,284.0197,0,U,51628,999,21218,.10893729E-2,.393E-5,0
ONEWEB-0428,2022-012H,2026-07-09T12:53:27.160224,13.10377409,.0001843,87.8816,31.8200,86.6305,273.5033,0,U,51629,999,21221,.11794E-2,.424E-5,0
ONEWEB-0431,2022-012J,2026-07-08T23:19:31.455840,13.10371606,.0002234,87.8818,31.9256,99.9921,260.1459,0,U,51630,999,21219,-.18003986E-2,-.616E-5,0
ONEWEB-0434,2022-012K,2026-07-08T11:48:29.866176,13.10370293,.0001823,87.8816,32.0477,67.7485,292.3835,0,U,51631,999,21211,.14970456E-2,.535E-5,0
ONEWEB-0435,2022-012L,2026-07-08T22:57:47.520000,13.10354925,.00018915,87.8809,31.9394,99.1164,261.0177,0,U,51632,999,21216,.76433204E-2,.2681E-4,0
ONEWEB-0436,2022-012M,2026-07-09T18:21:57.301056,13.17650582,.0001856,87.9148,1.3551,98.8810,261.2532,0,U,51633,999,21665,.21881E-3,.98E-6,0
ONEWEB-0438,2022-012N,2026-07-09T00:25:45.252768,13.10373194,.00019121,87.8812,31.9309,84.3086,275.8259,0,U,51634,999,21220,.16251198E-2,.58E-5,0
ONEWEB-0439,2022-012P,2026-07-08T15:20:52.317888,13.10371793,.00018198,87.8814,31.9937,87.0009,273.1327,0,U,51635,999,21213,.11657949E-2,.42E-5,0
ONEWEB-0442,2022-012Q,2026-07-09T18:11:03.108768,13.17650742,.0001898,87.9137,1.3875,73.4283,286.7057,0,U,51636,999,21664,.13396E-3,.65E-6,0
ONEWEB-0443,2022-012R,2026-07-09T16:49:37.000416,13.17649662,.0001484,87.9133,1.4000,89.3046,270.8256,0,U,51637,999,21668,-.13401E-4,.8E-7,0
ONEWEB-0444,2022-012S,2026-07-09T13:05:40.063776,13.10376006,.0001666,87.8816,31.8111,87.3125,272.8193,0,U,51638,999,21226,.19279E-2,.686E-5,0
ONEWEB-0445,2022-012T,2026-07-08T11:55:36.160320,13.10359174,.00020636,87.8820,32.0101,86.6839,273.4524,0,U,51639,999,21213,-.25916716E-2,-.892E-5,0
ONEWEB-0446,2022-012U,2026-07-09T13:03:11.880000,13.10372782,.0002177,87.8816,31.8286,84.2028,275.9347,0,U,51640,999,21225,.17928E-2,.639E-5,0
ONEWEB-0448,2022-012V,2026-07-09T00:20:52.526112,13.10374292,.00017397,87.8801,31.9306,82.9447,277.1878,0,U,51641,999,21215,.17641074E-2,.629E-5,0
ONEWEB-0449,2022-012W,2026-07-08T22:38:13.845120,13.10371670,.00019959,87.8810,31.9289,61.4811,298.6517,0,U,51642,999,21215,.15895476E-2,.568E-5,0
ONEWEB-0451,2022-012X,2026-07-09T18:17:06.381024,13.17651103,.0001753,87.9148,1.3538,85.1494,274.9837,0,U,51643,999,21663,.28235E-3,.123E-5,0
ONEWEB-0452,2022-012Y,2026-07-09T18:14:39.698016,13.17649501,.0001549,87.9144,1.3890,86.8518,273.2791,0,U,51644,999,21664,-.59169E-3,-.217E-5,0
ONEWEB-0456,2022-012AA,2026-07-09T00:40:22.074528,13.10368988,.00017532,87.8818,31.9032,92.7182,267.4146,0,U,51646,999,21220,.55693391E-3,.207E-5,0
ONEWEB-0457,2022-012AB,2026-07-09T12:58:08.402592,13.10377477,.0002161,87.8816,31.8169,80.3994,279.7378,0,U,51647,999,21227,.1401E-2,.502E-5,0
ONEWEB-0458,2022-012AC,2026-07-09T00:39:10.444608,13.10369181,.00016745,87.8809,31.9083,86.6400,273.4919,0,U,51648,999,21216,.10563922E-2,.381E-5,0
ONEWEB-0461,2022-012AD,2026-07-09T13:18:13.572864,13.17650128,.0001972,87.9149,1.4088,89.5785,270.5573,0,U,51649,999,21683,.14037E-3,.67E-6,0
ONEWEB-0463,2022-012AE,2026-07-09T18:19:32.492064,13.17650492,.0002015,87.9137,1.3874,90.0443,270.0920,0,U,51650,999,21664,.29821E-3,.129E-5,0
ONEWEB-0464,2022-012AF,2026-07-09T00:35:31.034400,13.10369537,.00015244,87.8806,31.9290,86.9293,273.2009,0,U,51651,999,21218,.11556618E-2,.416E-5,0
ONEWEB-0468,2022-012AG,2026-07-09T00:42:48.693600,13.10368529,.00016324,87.8811,31.9214,91.3483,268.7832,0,U,51652,999,21216,.33222927E-3,.129E-5,0
